[{"OBJECT_NAME":"STARLINK-32828","OBJECT_ID":"2025-034S","EPOCH":"2026-03-09T22:25:56.941248","MEAN_MOTION":15.30200145,"ECCENTRICITY":5.229e-5,"INCLINATION":53.1583,"RA_OF_ASC_NODE":269.8138,"ARG_OF_PERICENTER":95.233,"MEAN_ANOMALY":264.8731,"EPHEMERIS_TYPE":0,"CLASSIFICATION_TYPE":"U","NORAD_CAT_ID":63045,"ELEMENT_SET_NO":999,"REV_AT_EPOCH":5894,"BSTAR":0.00085028242,"MEAN_MOTION_DOT":0.00024908,"MEAN_MOTION_DDOT":0},{"OBJECT_NAME":"SL-3 R\/B","OBJECT_ID":"1982-027B","EPOCH":"2026-03-09T22:44:40.208640","MEAN_MOTION":15.28335844,"ECCENTRICITY":0.00065199,"INCLINATION":81.188,"RA_OF_ASC_NODE":37.4466,"ARG_OF_PERICENTER":276.581,"MEAN_ANOMALY":83.4683,"EPHEMERIS_TYPE":0,"CLASSIFICATION_TYPE":"U","NORAD_CAT_ID":13121,"ELEMENT_SET_NO":999,"REV_AT_EPOCH":39859,"BSTAR":0.00030526741,"MEAN_MOTION_DOT":8.453e-5,"MEAN_MOTION_DDOT":0}]
